[{"OBJECT_NAME":"KANOPUS-V-IK","OBJECT_ID":"2017-042A","EPOCH":"2026-03-09T19:17:12.916608","MEAN_MOTION":15.22854595,"ECCENTRICITY":0.00016151,"INCLINATION":97.364,"RA_OF_ASC_NODE":336.3354,"ARG_OF_PERICENTER":87.4516,"MEAN_ANOMALY":272.6906,"EPHEMERIS_TYPE":0,"CLASSIFICATION_TYPE":"U","NORAD_CAT_ID":42825,"ELEMENT_SET_NO":999,"REV_AT_EPOCH":48024,"BSTAR":0.00016848135,"MEAN_MOTION_DOT":3.875e-5,"MEAN_MOTION_DDOT":0},{"OBJECT_NAME":"STARLINK-30128","OBJECT_ID":"2023-079K","EPOCH":"2026-03-09T22:00:01.999584","MEAN_MOTION":15.1645424,"ECCENTRICITY":0.00012166,"INCLINATION":42.9995,"RA_OF_ASC_NODE":79.6064,"ARG_OF_PERICENTER":264.9817,"MEAN_ANOMALY":319.4479,"EPHEMERIS_TYPE":0,"CLASSIFICATION_TYPE":"U","NORAD_CAT_ID":56832,"ELEMENT_SET_NO":999,"REV_AT_EPOCH":572,"BSTAR":0.060668261,"MEAN_MOTION_DOT":0.0130306,"MEAN_MOTION_DDOT":0}]
